{
  "norad_id": 65032,
  "name": "STARLINK-34656",
  "history": [
    {
      "epoch": "2026-03-28T17:49:34.587552Z",
      "apogee_km": 476.0114139937714,
      "perigee_km": 474.34413957487595,
      "latitude_deg": -2.1340783153902716e-05,
      "longitude_deg": 112.38403436188682,
      "height_km": 475.7549567560865,
      "semi_major_axis_km": 6853.314776784324,
      "eccentricity": 0.00012164,
      "inclination_deg": 53.1581,
      "raan_deg": 205.937,
      "arg_perigee_deg": 67.3596,
      "mean_anomaly_deg": 292.7533,
      "mean_motion_rev_day": 15.3021249
    },
    {
      "epoch": "2026-03-29T22:02:31.817184Z",
      "apogee_km": 475.8030924511668,
      "perigee_km": 474.522896012244,
      "latitude_deg": 5.857893560381877e-05,
      "longitude_deg": 42.5254517553008,
      "height_km": 476.4548680106542,
      "semi_major_axis_km": 6853.299994231706,
      "eccentricity": 9.34e-05,
      "inclination_deg": 53.1591,
      "raan_deg": 200.4756,
      "arg_perigee_deg": 127.8989,
      "mean_anomaly_deg": 232.2097,
      "mean_motion_rev_day": 15.30217441
    },
    {
      "epoch": "2026-03-30T13:43:04.547424Z",
      "apogee_km": 476.1294030805966,
      "perigee_km": 474.32641983968915,
      "latitude_deg": -2.7997519618618945e-05,
      "longitude_deg": 163.7114314305195,
      "height_km": 476.2357488284715,
      "semi_major_axis_km": 6853.364911460143,
      "eccentricity": 0.00013154,
      "inclination_deg": 53.1593,
      "raan_deg": 197.4418,
      "arg_perigee_deg": 97.0014,
      "mean_anomaly_deg": 263.1136,
      "mean_motion_rev_day": 15.30195699
    },
    {
      "epoch": "2026-03-30T16:51:11.032992Z",
      "apogee_km": 476.06931450871616,
      "perigee_km": 474.36502239410675,
      "latitude_deg": -1.5401548113922678e-05,
      "longitude_deg": 115.94846235183624,
      "height_km": 476.1124950989157,
      "semi_major_axis_km": 6853.354168451411,
      "eccentricity": 0.00012434,
      "inclination_deg": 53.1592,
      "raan_deg": 196.8346,
      "arg_perigee_deg": 89.8184,
      "mean_anomaly_deg": 270.2959,
      "mean_motion_rev_day": 15.30199297
    },
    {
      "epoch": "2026-03-31T13:13:52.502304Z",
      "apogee_km": 475.9142820096422,
      "perigee_km": 474.6387246883987,
      "latitude_deg": -3.771060340550732e-06,
      "longitude_deg": 165.49548097785518,
      "height_km": 476.01838388530433,
      "semi_major_axis_km": 6853.41350334902,
      "eccentricity": 9.306e-05,
      "inclination_deg": 53.1606,
      "raan_deg": 192.8913,
      "arg_perigee_deg": 75.7724,
      "mean_anomaly_deg": 284.338,
      "mean_motion_rev_day": 15.30179425
    },
    {
      "epoch": "2026-04-01T12:44:40.550496Z",
      "apogee_km": 475.58068830445063,
      "perigee_km": 474.90768627185844,
      "latitude_deg": -2.2030400448763302e-05,
      "longitude_deg": 167.27860902298707,
      "height_km": 475.83307731224266,
      "semi_major_axis_km": 6853.381187288154,
      "eccentricity": 4.91e-05,
      "inclination_deg": 53.1618,
      "raan_deg": 188.3403,
      "arg_perigee_deg": 337.6556,
      "mean_anomaly_deg": 22.4423,
      "mean_motion_rev_day": 15.30190248
    },
    {
      "epoch": "2026-04-02T15:23:34.247904Z",
      "apogee_km": 475.89219775231686,
      "perigee_km": 474.4760274776054,
      "latitude_deg": 5.4800892121234285e-05,
      "longitude_deg": 121.30352337876253,
      "height_km": 476.0006808973007,
      "semi_major_axis_km": 6853.321112614961,
      "eccentricity": 0.00010332,
      "inclination_deg": 53.1612,
      "raan_deg": 183.1833,
      "arg_perigee_deg": 83.3529,
      "mean_anomaly_deg": 276.759,
      "mean_motion_rev_day": 15.30210368
    },
    {
      "epoch": "2026-04-03T14:54:22.765248Z",
      "apogee_km": 476.2578217985965,
      "perigee_km": 474.34845337626393,
      "latitude_deg": -2.2585843979742065e-05,
      "longitude_deg": 123.08494614079805,
      "height_km": 476.17147424090473,
      "semi_major_axis_km": 6853.4401375874295,
      "eccentricity": 0.0001393,
      "inclination_deg": 53.1625,
      "raan_deg": 178.6326,
      "arg_perigee_deg": 88.2094,
      "mean_anomaly_deg": 271.9066,
      "mean_motion_rev_day": 15.30170505
    },
    {
      "epoch": "2026-04-04T14:25:10.671744Z",
      "apogee_km": 475.93938197487114,
      "perigee_km": 474.2932305307095,
      "latitude_deg": -1.332353790649964e-05,
      "longitude_deg": 124.87058482077464,
      "height_km": 475.8392438788392,
      "semi_major_axis_km": 6853.25330625279,
      "eccentricity": 0.0001201,
      "inclination_deg": 53.161,
      "raan_deg": 174.0835,
      "arg_perigee_deg": 77.6961,
      "mean_anomaly_deg": 282.4174,
      "mean_motion_rev_day": 15.30233078
    },
    {
      "epoch": "2026-04-05T13:55:59.212416Z",
      "apogee_km": 475.92413551690606,
      "perigee_km": 474.5452371336178,
      "latitude_deg": 1.5251841407706779e-05,
      "longitude_deg": 126.6517874365904,
      "height_km": 476.7890079636562,
      "semi_major_axis_km": 6853.371686325262,
      "eccentricity": 0.0001006,
      "inclination_deg": 53.1593,
      "raan_deg": 169.5326,
      "arg_perigee_deg": 161.8354,
      "mean_anomaly_deg": 198.2683,
      "mean_motion_rev_day": 15.3019343
    },
    {
      "epoch": "2026-04-07T11:23:31.087104Z",
      "apogee_km": 476.20309357980113,
      "perigee_km": 474.2463217450304,
      "latitude_deg": -1.5831157212191055e-05,
      "longitude_deg": 154.10251965408,
      "height_km": 475.9066928544202,
      "semi_major_axis_km": 6853.361707662416,
      "eccentricity": 0.00014276,
      "inclination_deg": 53.1575,
      "raan_deg": 160.7331,
      "arg_perigee_deg": 77.2662,
      "mean_anomaly_deg": 282.8498,
      "mean_motion_rev_day": 15.30196772
    },
    {
      "epoch": "2026-04-08T14:02:25.620864Z",
      "apogee_km": 476.038363702467,
      "perigee_km": 474.38177264914793,
      "latitude_deg": 1.617948118120136e-05,
      "longitude_deg": 108.12420190744099,
      "height_km": 476.1715269366941,
      "semi_major_axis_km": 6853.347068175807,
      "eccentricity": 0.00012086,
      "inclination_deg": 53.158,
      "raan_deg": 155.5764,
      "arg_perigee_deg": 94.3977,
      "mean_anomaly_deg": 265.7162,
      "mean_motion_rev_day": 15.30201675
    },
    {
      "epoch": "2026-04-09T10:25:07.022784Z",
      "apogee_km": 475.97060246047477,
      "perigee_km": 474.44998176330137,
      "latitude_deg": -7.441558365749704e-06,
      "longitude_deg": 157.66957217430095,
      "height_km": 476.02866229936745,
      "semi_major_axis_km": 6853.347292111888,
      "eccentricity": 0.00011094,
      "inclination_deg": 53.1572,
      "raan_deg": 151.6312,
      "arg_perigee_deg": 83.9879,
      "mean_anomaly_deg": 276.1248,
      "mean_motion_rev_day": 15.302016
    },
    {
      "epoch": "2026-04-10T13:04:01.408800Z",
      "apogee_km": 476.03875721047007,
      "perigee_km": 474.39532291166324,
      "latitude_deg": 3.229513930973653e-05,
      "longitude_deg": 111.69267787159217,
      "height_km": 476.0468247908478,
      "semi_major_axis_km": 6853.354040061066,
      "eccentricity": 0.0001199,
      "inclination_deg": 53.1581,
      "raan_deg": 146.4753,
      "arg_perigee_deg": 85.2402,
      "mean_anomaly_deg": 274.8736,
      "mean_motion_rev_day": 15.3019934
    },
    {
      "epoch": "2026-04-11T14:08:52.589184Z",
      "apogee_km": 476.039319928017,
      "perigee_km": 474.4328892722988,
      "latitude_deg": -5.6145850135613414e-05,
      "longitude_deg": 89.59362308875384,
      "height_km": 475.9874081152912,
      "semi_major_axis_km": 6853.373104600158,
      "eccentricity": 0.0001172,
      "inclination_deg": 53.1583,
      "raan_deg": 141.6196,
      "arg_perigee_deg": 79.4722,
      "mean_anomaly_deg": 280.641,
      "mean_motion_rev_day": 15.30192955
    },
    {
      "epoch": "2026-04-13T05:20:12.556320Z",
      "apogee_km": 476.05306532074337,
      "perigee_km": 474.3860548710645,
      "latitude_deg": -2.9516817310861036e-05,
      "longitude_deg": -147.43428459052498,
      "height_km": 476.03495258257203,
      "semi_major_axis_km": 6853.356560095904,
      "eccentricity": 0.00012162,
      "inclination_deg": 53.1592,
      "raan_deg": 134.0343,
      "arg_perigee_deg": 84.3069,
      "mean_anomaly_deg": 275.807,
      "mean_motion_rev_day": 15.30198496
    },
    {
      "epoch": "2026-04-14T18:57:29.081088Z",
      "apogee_km": 475.9216766682357,
      "perigee_km": 474.5249618351727,
      "latitude_deg": 6.383313761156983e-05,
      "longitude_deg": -0.5797167083938364,
      "height_km": 476.17046294016444,
      "semi_major_axis_km": 6853.360319251704,
      "eccentricity": 0.0001019,
      "inclination_deg": 53.1594,
      "raan_deg": 126.7527,
      "arg_perigee_deg": 94.0071,
      "mean_anomaly_deg": 266.1047,
      "mean_motion_rev_day": 15.30197237
    },
    {
      "epoch": "2026-04-15T18:28:16.903776Z",
      "apogee_km": 475.8911591707865,
      "perigee_km": 474.4588169652807,
      "latitude_deg": -7.573571631557136e-06,
      "longitude_deg": 1.2034144834117577,
      "height_km": 476.1831037152949,
      "semi_major_axis_km": 6853.311988068033,
      "eccentricity": 0.0001045,
      "inclination_deg": 53.1603,
      "raan_deg": 122.2008,
      "arg_perigee_deg": 98.8096,
      "mean_anomaly_deg": 261.3023,
      "mean_motion_rev_day": 15.30213424
    },
    {
      "epoch": "2026-04-16T13:16:55.430112Z",
      "apogee_km": 476.02630034483263,
      "perigee_km": 474.3897215562174,
      "latitude_deg": -3.253868630488996e-05,
      "longitude_deg": 74.63184292021396,
      "height_km": 475.93316645681125,
      "semi_major_axis_km": 6853.345010950525,
      "eccentricity": 0.0001194,
      "inclination_deg": 53.1601,
      "raan_deg": 118.5623,
      "arg_perigee_deg": 77.7889,
      "mean_anomaly_deg": 282.3245,
      "mean_motion_rev_day": 15.30202364
    },
    {
      "epoch": "2026-04-17T09:39:36.794016Z",
      "apogee_km": 475.83157877398935,
      "perigee_km": 474.5759096828324,
      "latitude_deg": 3.647626350156529e-05,
      "longitude_deg": 124.17544489353227,
      "height_km": 476.4182562312308,
      "semi_major_axis_km": 6853.340744228411,
      "eccentricity": 9.161e-05,
      "inclination_deg": 53.1606,
      "raan_deg": 114.6151,
      "arg_perigee_deg": 120.1925,
      "mean_anomaly_deg": 239.9167,
      "mean_motion_rev_day": 15.30203793
    },
    {
      "epoch": "2026-04-18T04:28:15.143232Z",
      "apogee_km": 476.2093655173121,
      "perigee_km": 474.14980681683755,
      "latitude_deg": 1.5577172344284902e-06,
      "longitude_deg": -162.394094881824,
      "height_km": 475.73429890199833,
      "semi_major_axis_km": 6853.316586167074,
      "eccentricity": 0.00015026,
      "inclination_deg": 53.1604,
      "raan_deg": 110.9779,
      "arg_perigee_deg": 70.5315,
      "mean_anomaly_deg": 289.5848,
      "mean_motion_rev_day": 15.30211884
    }
  ]
}